*******************************************************************************
JPL/HORIZONS                2314 Field (1977 VD)           2023-Sep-04 11:17:13
Rec #:    2314 (+COV) Soln.date: 2023-Aug-22_19:37:05   # obs: 5604 (1953-2023)
 
IAU76/J2000 helio. ecliptic osc. elements (au, days, deg., period=Julian yrs):
 
  EPOCH=  2457856.5 ! 2017-Apr-13.00 (TDB)         Residual RMS= .26879
   EC= .0245968025473416   QR= 2.205067880514167   TP= 2457682.9555405788
   OM= 34.03416733580004   W=  179.6919668469192   IN= 5.727660779721693
   A= 2.260673213162387    MA= 50.32202907209317   ADIST= 2.316278545810606
   PER= 3.39911            N= .289966209           ANGMOM= .025856451
   DAN= 2.31628            DDN= 2.20507            L= 213.727672
   B= .0307416             MOID= 1.19775999        TP= 2016-Oct-21.4555405788
 
Asteroid physical parameters (km, seconds, rotational period in hours):
   GM= n.a.                RAD= 1.884              ROTPER= n.a.
   H= 13.81                G= .150                 B-V= n.a.
                           ALBEDO= .452            STYP= n.a.

ASTEROID comments: 
1: soln ref.= JPL#48, OCC=0
2: source=ORB
*******************************************************************************


*******************************************************************************
Ephemeris / API_USER Mon Sep  4 11:17:13 2023 Pasadena, USA      / Horizons
*******************************************************************************
Target body name: 2314 Field (1977 VD)            {source: JPL#48}
Center body name: Solar System Barycenter (0)     {source: DE441}
Center-site name: BODY CENTER
*******************************************************************************
Start time      : A.D. 2023-Aug-12 00:00:00.0000 TDB
Stop  time      : A.D. 2023-Aug-13 00:00:00.0000 TDB
Step-size       : 2880 minutes
*******************************************************************************
Center geodetic : 0.0, 0.0, 0.0                   {E-lon(deg),Lat(deg),Alt(km)}
Center cylindric: 0.0, 0.0, 0.0                   {E-lon(deg),Dxy(km),Dz(km)}
Center radii    : (undefined)
Small perturbers: Yes                             {source: SB441-N16}
Output units    : KM-S
Calendar mode   : Mixed Julian/Gregorian
Output type     : GEOMETRIC cartesian states
Output format   : 2 (position and velocity)
Reference frame : Ecliptic of J2000.0
*******************************************************************************
Initial IAU76/J2000 heliocentric ecliptic osculating elements (au, days, deg.):
  EPOCH=  2457856.5 ! 2017-Apr-13.00 (TDB)         Residual RMS= .26879        
   EC= .0245968025473416   QR= 2.205067880514167   TP= 2457682.9555405788      
   OM= 34.03416733580004   W=  179.6919668469192   IN= 5.727660779721693       
  Equivalent ICRF heliocentric cartesian coordinates (au, au/d):
   X=-1.501035958068447E-01  Y=-1.961438331907792E+00  Z=-1.041780004328190E+00
  VX= 1.155597450618353E-02 VY=-5.825025421367976E-04 VZ=-1.045711910972987E-03
Asteroid physical parameters (km, seconds, rotational period in hours):        
   GM= n.a.                RAD= 1.884              ROTPER= n.a.                
   H= 13.81                G= .150                 B-V= n.a.                   
                           ALBEDO= .452            STYP= n.a.                  
*******************************************************************************
JDTDB
   X     Y     Z
   VX    VY    VZ
*******************************************************************************
$$SOE
2460168.500000000 = A.D. 2023-Aug-12 00:00:00.0000 TDB 
 X =-2.735399236565943E+08 Y =-1.860880045917572E+08 Z =-1.707675651223361E+05
 VX= 1.140259546631140E+01 VY=-1.671406486647142E+01 VZ=-2.027954710326370E+00
$$EOE
*******************************************************************************
 
TIME

  Barycentric Dynamical Time ("TDB" or T_eph) output was requested. This
continuous coordinate time is equivalent to the relativistic proper time
of a clock at rest in a reference frame co-moving with the solar system
barycenter but outside the system's gravity well. It is the independent
variable in the solar system relativistic equations of motion.

  TDB runs at a uniform rate of one SI second per second and is independent
of irregularities in Earth's rotation.
 
CALENDAR SYSTEM

  Mixed calendar mode was active such that calendar dates after AD 1582-Oct-15
(if any) are in the modern Gregorian system. Dates prior to 1582-Oct-5 (if any)
are in the Julian calendar system, which is automatically extended for dates
prior to its adoption on 45-Jan-1 BC.  The Julian calendar is useful for
matching historical dates. The Gregorian calendar more accurately corresponds
to the Earth's orbital motion and seasons. A "Gregorian-only" calendar mode is
available if such physical events are the primary interest.

REFERENCE FRAME AND COORDINATES

  Ecliptic at the standard reference epoch

    Reference epoch: J2000.0
    X-Y plane: adopted Earth orbital plane at the reference epoch
               Note: IAU76 obliquity of 84381.448 arcseconds wrt ICRF X-Y plane
    X-axis   : ICRF
    Z-axis   : perpendicular to the X-Y plane in the directional (+ or -) sense
               of Earth's north pole at the reference epoch.

  Symbol meaning:

    JDTDB    Julian Day Number, Barycentric Dynamical Time
      X      X-component of position vector (km)
      Y      Y-component of position vector (km)
      Z      Z-component of position vector (km)
      VX     X-component of velocity vector (km/sec)                           
      VY     Y-component of velocity vector (km/sec)                           
      VZ     Z-component of velocity vector (km/sec)                           

ABERRATIONS AND CORRECTIONS

 Geometric state vectors have NO corrections or aberrations applied.

Computations by ...

    Solar System Dynamics Group, Horizons On-Line Ephemeris System
    4800 Oak Grove Drive, Jet Propulsion Laboratory
    Pasadena, CA  91109   USA

    General site: https://ssd.jpl.nasa.gov/
    Mailing list: https://ssd.jpl.nasa.gov/email_list.html
    System news : https://ssd.jpl.nasa.gov/horizons/news.html
    User Guide  : https://ssd.jpl.nasa.gov/horizons/manual.html
    Connect     : browser        https://ssd.jpl.nasa.gov/horizons/app.html#/x
                  API            https://ssd-api.jpl.nasa.gov/doc/horizons.html
                  command-line   telnet ssd.jpl.nasa.gov 6775
                  e-mail/batch   https://ssd.jpl.nasa.gov/ftp/ssd/hrzn_batch.txt
                  scripts        https://ssd.jpl.nasa.gov/ftp/ssd/SCRIPTS
    Author      : Jon.D.Giorgini@jpl.nasa.gov
*******************************************************************************
